0 METEOR 2-17 DEB
1 28993U 88005H   13281.71669719  .00000210  00000-0  16460-3 0  3417
2 28993 082.5280 048.9279 0016004 114.7520 245.5292 13.87786298382896
0 METEOR 2-17 DEB
1 28993U 88005H   13283.66334655  .00000218  00000-0  18354-3 0  3424
2 28993 082.5307 047.3686 0017162 118.3166 242.0208 13.87787212383160
0 METEOR 2-17 DEB
1 28993U 88005H   13284.09593068  .00000204  00000-0  15945-3 0  3425
2 28993 082.5279 047.0224 0015790 108.0043 252.2821 13.87787047383225
0 METEOR 2-17 DEB
1 28993U 88005H   13286.61935779  .00000200  00000-0  15576-3 0  3431
2 28993 082.5283 045.0013 0015683 101.7719 258.5247 13.87787978383577
0 METEOR 2-17 DEB
1 28993U 88005H   13288.63809642  .00000199  00000-0  15456-3 0  3449
2 28993 082.5281 043.3841 0015747 096.5066 263.7891 13.87788721383853
0 METEOR 2-17 DEB
1 28993U 88005H   13290.58473164  .00000360  00000-0  30338-3 0  3459
2 28993 082.5315 041.8245 0016188 100.2783 260.0664 13.87792849384126
0 METEOR 2-17 DEB
1 28993U 88005H   13291.01731744  .00000232  00000-0  18291-3 0  3451
2 28993 082.5288 041.4781 0015819 091.1294 269.1746 13.87790851384189
0 METEOR 2-17 DEB
1 28993U 88005H   13293.03604997  .00000250  00000-0  19822-3 0  3466
2 28993 082.5284 039.8609 0016080 085.7489 274.5550 13.87792246384465
0 METEOR 2-17 DEB
1 28993U 88005H   13295.55946020  .00000302  00000-0  24176-3 0  3478
2 28993 082.5273 037.8384 0015114 074.8231 285.4922 13.87795344384817
